{"type":"FeatureCollection","features":[{"type":"Feature","id":157,"geometry":{"type":"MultiPolygon","coordinates":[[[[-38.558696805999944,-18.150482626999974],[-38.55869630199993,-17.900484495999933],[-38.750363479999976,-17.717146476999972],[-38.750364352999952,-18.150484182999946],[-38.558696805999944,-18.150482626999974]]],[[[-38.967032459999984,-17.533810323999944],[-38.967032327999959,-17.467147971999964],[-39.045363991999977,-17.417144383999982],[-39.090366567999979,-17.483810473999938],[-39.033698776999984,-17.533810203999963],[-38.967032459999984,-17.533810323999944]]]]},"properties":{"OBJECTID":157,"SiteID":164,"SiteName":"Abrolhos Seascape","EngagementID":6,"EngagementName":"Brazil","ConservationType":"New","Status":"Imp","Shape_Length":1.5225037496990192,"Shape_Area":0.075000349604525743}}]}