{"type":"FeatureCollection","features":[{"type":"Feature","id":196,"geometry":{"type":"Polygon","coordinates":[[[-52.174822137999968,-33.200276402999975],[-52.039848438999968,-32.993426553999939],[-52.542250763999959,-32.991983371999936],[-52.560860012999967,-33.027433362999943],[-52.572430222999969,-33.051473060999967],[-52.597892290999937,-33.097787721999964],[-52.624009059999935,-33.138366389999931],[-52.646887422999953,-33.167614664999974],[-52.686028676999968,-33.215205748999949],[-52.70186025199996,-33.200983657999984],[-52.756952557999966,-33.258448985999962],[-52.793643473999964,-33.29254048699994],[-52.910619661999931,-33.386895209999977],[-52.942461700999957,-33.412682449999977],[-52.986346950999973,-33.448896571999967],[-53.073100496999984,-33.518649882999966],[-53.081189231999986,-33.525225209999974],[-53.089824790999955,-33.53193131699993],[-53.094829643999958,-33.536309918999962],[-53.098097328999984,-33.539168364999966],[-53.116309781999973,-33.553801266999983],[-53.102193427999964,-33.567641327999979],[-53.146543772999962,-33.605118947999983],[-53.193057426999985,-33.638527493999959],[-53.240027940999937,-33.674760116999948],[-53.286558700999933,-33.706267536999974],[-53.324958321999986,-33.732459424999945],[-53.339049669999952,-33.742944913999963],[-52.940902997999956,-34.002142535999951],[-52.421853469999974,-33.731813206999959],[-51.988530449999985,-33.892762625999978],[-51.476277041999936,-33.250809223999966],[-52.174822137999968,-33.200276402999975]]]},"properties":{"OBJECTID":196,"SiteID":162,"SiteName":"Albardão National Park - No-Take","EngagementID":6,"EngagementName":"Brazil","ConservationType":"New","Status":"TR","Shape_Length":4.9410151305429082,"Shape_Area":0.97428264970013245}}]}