{"type":"FeatureCollection","features":[{"type":"Feature","id":160,"geometry":{"type":"Polygon","coordinates":[[[-29.833327370999939,0.91608059400005004],[-31.166660669999942,-0.25000270899994348],[-28.499994073999972,-1.4833360039999661],[-28.149994084999946,-1.3333360069999571],[-28.999994059999949,0.91608059200007119],[-29.833327370999939,0.91608059400005004]]]},"properties":{"OBJECTID":160,"SiteID":168,"SiteName":"Natural Monument of the Archipelago of São Pedro and São Paulo","EngagementID":6,"EngagementName":"Brazil","ConservationType":"Imp","Status":"Imp","Shape_Length":8.3281500298573299,"Shape_Area":3.8341546486359293}}]}