{"type":"FeatureCollection","features":[{"type":"Feature","id":161,"geometry":{"type":"MultiPolygon","coordinates":[[[[-29.294438096999954,-20.51527975099998],[-29.299993651999955,-20.509724195999979],[-29.304160319999937,-20.513890862999972],[-29.29721587399996,-20.519446416999926],[-29.294438096999954,-20.51527975099998]]],[[[-29.322826984999949,-20.519668640999953],[-29.328326983999943,-20.51883530799995],[-29.332993650999981,-20.513001974999952],[-29.325493651999977,-20.505335307999928],[-29.337326986999983,-20.488668641999936],[-29.343326984999976,-20.487835308999934],[-29.356993649999936,-20.501001975999941],[-29.329826983999965,-20.526335307999943],[-29.322826984999949,-20.519668640999953]]],[[[-27.249993682999957,-21.333335193999972],[-27.249993750999977,-19.666668605999973],[-28.999993694999944,-19.666668665999964],[-28.999993625999934,-21.333335259999956],[-27.249993682999957,-21.333335193999972]]],[[[-30.999993650999954,-19.333335416999944],[-32.120760234999977,-19.333314359999974],[-32.662380548999977,-19.333586373999935],[-32.858793043999981,-21.00391506099993],[-30.999993582999934,-21.000002015999939],[-30.999993601999961,-20.572840403999976],[-30.999993622999966,-20.055307655999968],[-30.999993650999954,-19.333335416999944]]]]},"properties":{"OBJECTID":161,"SiteID":169,"SiteName":"Natural Monument of the Islands of Trindade and Martim Vaz and Columbia seamount","EngagementID":6,"EngagementName":"Brazil","ConservationType":"Imp","Status":"Imp","Shape_Length":13.846723271040963,"Shape_Area":5.8548141901142774}}]}